[{"OBJECT_NAME":"JIAOTONG 5 (HEAD-2H)","OBJECT_ID":"2022-167K","EPOCH":"2026-03-09T23:22:06.822048","MEAN_MOTION":15.70872056,"ECCENTRICITY":0.00036843,"INCLINATION":97.6162,"RA_OF_ASC_NODE":251.2696,"ARG_OF_PERICENTER":321.7019,"MEAN_ANOMALY":38.3981,"EPHEMERIS_TYPE":0,"CLASSIFICATION_TYPE":"U","NORAD_CAT_ID":54691,"ELEMENT_SET_NO":999,"REV_AT_EPOCH":18142,"BSTAR":0.0011277683,"MEAN_MOTION_DOT":0.00142368,"MEAN_MOTION_DDOT":0},{"OBJECT_NAME":"STARLINK-11191 [DTC]","OBJECT_ID":"2024-141N","EPOCH":"2026-03-09T10:21:00.182304","MEAN_MOTION":15.69742441,"ECCENTRICITY":0.00012977,"INCLINATION":53.158,"RA_OF_ASC_NODE":87.4324,"ARG_OF_PERICENTER":72.0927,"MEAN_ANOMALY":288.0232,"EPHEMERIS_TYPE":0,"CLASSIFICATION_TYPE":"U","NORAD_CAT_ID":60410,"ELEMENT_SET_NO":999,"REV_AT_EPOCH":9170,"BSTAR":6.990598e-5,"MEAN_MOTION_DOT":7.899e-5,"MEAN_MOTION_DDOT":0}]
